      2.10          N: GNSS NAV DATA                        RINEX VERSION / TYPE
fic2rin                                 08/12/2020 00:17:25 PGM / RUN BY / DATE
                                                            END OF HEADER
10 20  8 11  4  0  0.0-4.244064912200e-04-1.034550223267e-11 0.000000000000e+00
    7.900000000000e+01-1.931250000000e+01 4.556618372874e-09 2.472027003676e-01
   -9.778887033463e-07 5.768291302957e-03 6.575137376785e-06 5.153665649414e+03
    1.872000000000e+05 5.960464477539e-08 2.734492013837e+00 8.009374141693e-08
    9.666030803610e-01 2.573437500000e+02-2.650509952356e+00-8.152482440760e-09
    2.339383158984e-10 1.000000000000e+00 2.118000000000e+03 0.000000000000e+00
    2.400000000000e+00 0.000000000000e+00 2.328306436539e-09 7.900000000000e+01
    1.800000000000e+05 4.000000000000e+00
27 20  8 11  4  0  0.0-3.681988455355e-04-9.322320693173e-12 0.000000000000e+00
    4.800000000000e+01-2.962500000000e+01 3.985880313628e-09-1.853659045117e+00
   -1.471489667892e-06 8.309529279359e-03 6.543472409248e-06 5.153670318604e+03
    1.872000000000e+05 9.313225746155e-09 6.412808061825e-01-1.396983861923e-07
    9.778933144846e-01 2.638125000000e+02 5.794910422651e-01-7.802467861248e-09
   -1.314340461842e-10 1.000000000000e+00 2.118000000000e+03 0.000000000000e+00
    2.400000000000e+00 0.000000000000e+00 1.862645149231e-09 4.800000000000e+01
    1.800000000000e+05 4.000000000000e+00
25 20  8 11  4  0  0.0 3.393180668354e-05 4.774847184308e-12 0.000000000000e+00
    4.600000000000e+01 3.590625000000e+01 4.730911347161e-09 6.395154868441e-01
    1.940876245499e-06 9.080683463253e-03 5.135312676430e-06 5.153752965927e+03
    1.872000000000e+05-8.009374141693e-08-4.039160002198e-01 6.705522537231e-08
    9.647773278768e-01 2.815625000000e+02 9.390726181325e-01-8.435351366243e-09
   -1.796503403006e-10 1.000000000000e+00 2.118000000000e+03 0.000000000000e+00
    2.400000000000e+00 0.000000000000e+00 5.587935447693e-09 4.600000000000e+01
    1.800000000000e+05 4.000000000000e+00
19 20  8 11  4  0  0.0-1.200479455292e-04 5.115907697473e-12 0.000000000000e+00
    9.600000000000e+01-3.121875000000e+01 3.999095149794e-09 6.727373133637e-01
   -1.762062311172e-06 9.372079512104e-03 7.871538400650e-06 5.153693853378e+03
    1.872000000000e+05-6.332993507385e-08 7.456550138100e-01-1.285225152969e-07
    9.820366320304e-01 2.469062500000e+02 1.692108297960e+00-7.983189674751e-09
   -2.978695503195e-10 1.000000000000e+00 2.118000000000e+03 0.000000000000e+00
    2.400000000000e+00 0.000000000000e+00-1.536682248116e-08 9.600000000000e+01
    1.800000000000e+05 4.000000000000e+00
22 20  8 11  4  0  0.0-7.651345804334e-04 3.183231456205e-12 0.000000000000e+00
    7.300000000000e+01-1.365625000000e+01 5.219145969807e-09-2.799082067746e+00
   -7.078051567078e-07 6.851335405372e-03 5.863606929779e-06 5.153765031815e+03
    1.872000000000e+05 1.490116119385e-08 2.648376549662e+00 1.173466444016e-07
    9.317485465641e-01 2.454687500000e+02-1.105543588888e+00-8.371420131822e-09
    2.682254583813e-10 1.000000000000e+00 2.118000000000e+03 0.000000000000e+00
    2.400000000000e+00 0.000000000000e+00-1.816079020500e-08 7.300000000000e+01
    1.800000000000e+05 4.000000000000e+00
15 20  8 11  4  0  0.0-2.114297822118e-04 2.614797267597e-12 0.000000000000e+00
    9.800000000000e+01-3.028125000000e+01 5.357366012941e-09-2.695755988257e+00
   -1.903623342514e-06 1.256165234372e-02 8.411705493927e-06 5.153730571747e+03
    1.872000000000e+05 1.750886440277e-07-2.606731343246e+00-1.806765794754e-07
    9.285817341508e-01 1.986250000000e+02 9.021932828287e-01-8.232842930954e-09
   -4.035882396416e-11 1.000000000000e+00 2.118000000000e+03 0.000000000000e+00
    2.400000000000e+00 0.000000000000e+00-1.071020960808e-08 9.800000000000e+01
    1.800000000000e+05 4.000000000000e+00
13 20  8 11  4  0  0.0 3.473786637187e-05 3.524291969370e-12 0.000000000000e+00
    5.600000000000e+01-1.340625000000e+01 4.449471052615e-09-2.504884235900e+00
   -8.884817361832e-07 4.331675940193e-03 9.264796972275e-06 5.153660816193e+03
    1.872000000000e+05 1.136213541031e-07-2.371222956920e+00-1.676380634308e-08
    9.679474025974e-01 2.034062500000e+02 1.048068366837e+00-7.842826685212e-09
   -7.143154683922e-11 1.000000000000e+00 2.118000000000e+03 0.000000000000e+00
    3.400000000000e+00 0.000000000000e+00-1.117587089539e-08 5.600000000000e+01
    1.800000000000e+05 4.000000000000e+00
12 20  8 11  4  0  0.0 8.213147521019e-05-4.888534022029e-12 0.000000000000e+00
    5.400000000000e+01 2.996875000000e+01 4.416612541069e-09 8.639238403414e-01
    1.525506377220e-06 7.924725883640e-03 5.172565579414e-06 5.153645990372e+03
    1.872000000000e+05-1.192092895508e-07-3.340674243691e-01 2.793967723846e-08
    9.774899528601e-01 2.896250000000e+02 1.169887821358e+00-8.248915028993e-09
   -1.921508609975e-10 1.000000000000e+00 2.118000000000e+03 0.000000000000e+00
    2.400000000000e+00 0.000000000000e+00-1.210719347000e-08 5.400000000000e+01
    1.800000000000e+05 4.000000000000e+00
21 20  8 11  4  0  0.0 3.427313640714e-05 4.433786671143e-12 0.000000000000e+00
    1.160000000000e+02-1.971875000000e+01 4.567690262634e-09-5.097463935777e-01
   -9.723007678986e-07 2.378127083648e-02 8.210539817810e-06 5.155073717117e+03
    1.872000000000e+05-4.079192876816e-07 1.621301275237e+00 8.009374141693e-08
    9.537807365218e-01 2.242812500000e+02-1.303120577986e+00-8.453209252953e-09
    3.571577341961e-10 1.000000000000e+00 2.118000000000e+03 0.000000000000e+00
    2.400000000000e+00 0.000000000000e+00-1.024454832077e-08 1.160000000000e+02
    1.800000000000e+05 4.000000000000e+00
26 20  8 11  4  0  0.0 2.592322416604e-04 6.707523425575e-12 0.000000000000e+00
    9.800000000000e+01 3.646875000000e+01 5.101641075257e-09 6.110622714821e-02
    1.784414052963e-06 4.820325761102e-03 5.045905709267e-06 5.153660039902e+03
    1.872000000000e+05-5.587935447693e-09-4.405953253638e-01 4.470348358154e-08
    9.457988594503e-01 2.710625000000e+02 2.080631668718e-01-8.518211960577e-09
   -1.792931825664e-10 1.000000000000e+00 2.118000000000e+03 0.000000000000e+00
    2.400000000000e+00 0.000000000000e+00 6.984919309616e-09 9.800000000000e+01
    1.800000000000e+05 4.000000000000e+00
20 20  8 11  4  0  0.0 5.270713008940e-04-1.136868377216e-13 0.000000000000e+00
    1.200000000000e+02-1.625000000000e+01 5.223789020352e-09 1.770697661579e+00
   -8.828938007355e-07 5.433458602056e-03 6.143003702164e-06 5.153658409119e+03
    1.872000000000e+05 2.607703208923e-08 2.601173051836e+00 5.774199962616e-08
    9.350293817383e-01 2.468125000000e+02 2.688454517310e+00-8.394635384545e-09
    2.014369620866e-10 1.000000000000e+00 2.118000000000e+03 0.000000000000e+00
    2.400000000000e+00 0.000000000000e+00-8.847564458847e-09 1.200000000000e+02
    1.800000000000e+05 4.000000000000e+00
17 20  8 11  4  0  0.0 3.092791885138e-04 5.684341886081e-12 0.000000000000e+00
    1.080000000000e+02-2.565625000000e+01 3.907662769839e-09-1.933784235727e+00
   -1.303851604462e-06 1.331163593568e-02 7.342547178268e-06 5.153737512589e+03
    1.872000000000e+05 2.626329660416e-07 7.001459115904e-01 1.825392246246e-07
    9.838011233571e-01 2.503437500000e+02-1.639247271674e+00-7.677105496545e-09
   -2.467959943295e-10 1.000000000000e+00 2.118000000000e+03 0.000000000000e+00
    3.400000000000e+00 0.000000000000e+00-1.117587089539e-08 1.080000000000e+02
    1.800000000000e+05 4.000000000000e+00
28 20  8 11  4  0  0.0 6.907344795763e-04-3.865352482535e-12 0.000000000000e+00
    6.000000000000e+01 2.253125000000e+01 4.484829668300e-09-1.084589592961e+00
    1.309439539909e-06 1.838413102087e-02 5.140900611877e-06 5.153663389206e+03
    1.872000000000e+05-3.185123205185e-07-3.115361087065e-01 8.381903171539e-08
    9.767360936188e-01 2.919687500000e+02-1.401695852956e+00-8.396421173216e-09
   -1.510777215649e-10 1.000000000000e+00 2.118000000000e+03 0.000000000000e+00
    2.400000000000e+00 0.000000000000e+00-1.117587089539e-08 6.000000000000e+01
    1.800000000000e+05 4.000000000000e+00
29 20  8 11  4  0  0.0-1.701237633824e-04-8.299139153678e-12 0.000000000000e+00
    1.510000000000e+02-3.790625000000e+01 3.929092233891e-09-1.665952288228e+00
   -2.000480890274e-06 1.623624702916e-03 7.383525371552e-06 5.153768108368e+03
    1.872000000000e+05 1.490116119385e-08 7.120290298385e-01 3.539025783539e-08
    9.854959007857e-01 2.495312500000e+02 2.153979872308e+00-7.882114035973e-09
   -2.282237921513e-10 1.000000000000e+00 2.118000000000e+03 0.000000000000e+00
    3.400000000000e+00 0.000000000000e+00-1.024454832077e-08 1.510000000000e+02
    1.800000000000e+05 4.000000000000e+00
30 20  8 11  4  0  0.0-2.799029462039e-04-7.389644451905e-12 0.000000000000e+00
    8.500000000000e+01 5.631250000000e+01 5.235932383315e-09 1.517168642198e+00
    3.077089786530e-06 4.788946476765e-03 8.249655365944e-06 5.153609972000e+03
    1.872000000000e+05 1.676380634308e-08-1.419792038414e+00 1.024454832077e-07
    9.377685144399e-01 2.101875000000e+02-2.814037327127e+00-8.382492021582e-09
   -2.428672592533e-11 1.000000000000e+00 2.118000000000e+03 0.000000000000e+00
    2.400000000000e+00 0.000000000000e+00 3.725290298462e-09 8.500000000000e+01
    1.800000000000e+05 4.000000000000e+00
32 20  8 11  4  0  0.0 3.308570012450e-04 5.570655048359e-12 0.000000000000e+00
    9.700000000000e+01-2.437500000000e+01 4.776984694873e-09-1.160283854868e+00
   -1.167878508568e-06 4.105375846848e-03 8.549541234970e-06 5.153743192673e+03
    1.872000000000e+05 8.009374141693e-08-2.506535150656e+00 1.490116119385e-08
    9.570535168691e-01 2.117812500000e+02-2.437596120714e+00-8.086051102199e-09
   -7.928901699153e-11 1.000000000000e+00 2.118000000000e+03 0.000000000000e+00
    2.400000000000e+00 0.000000000000e+00 4.656612873077e-10 9.700000000000e+01
    1.800000000000e+05 4.000000000000e+00
